CTC1_L_00203016-03
1 10062U 22637D   26075.70032407  .00000000  00000+0  00000-0 0  9991
2 10062  90.0000 180.0000 0000000   0.0000   0.0000 13.56072486    12
CTC1_L_00203016-04
1 10063U 23380XR  26075.70032407  .00000000  00000+0  00000-0 0  9998
2 10063  90.0000 180.0000 0000000   0.0000  90.0000 13.56072486    12
CTC1_L_00203017-01
1 10064U 25975WJ  26075.70032407  .00000000  00000+0  00000-0 0  9991
2 10064  90.0000 192.0000 0000000   0.0000 192.0000 13.56072486    19
CTC1_L_00203017-02
1 10065U 25527NT  26075.70032407  .00000000  00000+0  00000-0 0  9995
2 10065  90.0000 192.0000 0000000   0.0000 282.0000 13.56072486    10
CTC1_L_00203017-03
1 10066U 25190XK  26075.70032407  .00000000  00000+0  00000-0 0  9992
2 10066  90.0000 192.0000 0000000   0.0000  12.0000 13.56072486    12
CTC1_L_00203017-04
1 10067U 26567SR  26075.70032407  .00000000  00000+0  00000-0 0  9992
2 10067  90.0000 192.0000 0000000   0.0000 102.0000 13.56072486    13
CTC1_L_00203018-01
1 10068U 24672GW  26075.70032407  .00000000  00000+0  00000-0 0  9998
2 10068  90.0000 204.0000 0000000   0.0000 204.0000 13.56072486    11
CTC1_L_00203018-02
1 10069U 23656PJ  26075.70032407  .00000000  00000+0  00000-0 0  9990
2 10069  90.0000 204.0000 0000000   0.0000 294.0000 13.56072486    11
CTC1_L_00203018-03
1 10070U 26495OU  26075.70032407  .00000000  00000+0  00000-0 0  9996
2 10070  90.0000 204.0000 0000000   0.0000  24.0000 13.56072486    14
CTC1_L_00203018-04
1 10071U 26878UN  26075.70032407  .00000000  00000+0  00000-0 0  9992
2 10071  90.0000 204.0000 0000000   0.0000 114.0000 13.56072486    15
CTC1_L_00203019-01
1 10072U 24656NB  26075.70032407  .00000000  00000+0  00000-0 0  9995
2 10072  90.0000 216.0000 0000000   0.0000 216.0000 13.56072486    12
CTC1_L_00203019-02
1 10073U 25434XU  26075.70032407  .00000000  00000+0  00000-0 0  9991
2 10073  90.0000 216.0000 0000000   0.0000 306.0000 13.56072486    13
CTC1_L_00203019-03
1 10074U 24426ZR  26075.70032407  .00000000  00000+0  00000-0 0  9992
2 10074  90.0000 216.0000 0000000   0.0000  36.0000 13.56072486    14
CTC1_L_00203019-04
1 10075U 25862XJ  26075.70032407  .00000000  00000+0  00000-0 0  9998
2 10075  90.0000 216.0000 0000000   0.0000 126.0000 13.56072486    15
CTC1_L_00203020-01
1 10076U 24939EY  26075.70032407  .00000000  00000+0  00000-0 0  9993
2 10076  90.0000 228.0000 0000000   0.0000 228.0000 13.56072486    12
CTC1_L_00203020-02
1 10077U 25413AU  26075.70032407  .00000000  00000+0  00000-0 0  9992
2 10077  90.0000 228.0000 0000000   0.0000 318.0000 13.56072486    13
CTC1_L_00203020-03
1 10078U 22625LR  26075.70032407  .00000000  00000+0  00000-0 0  9995
2 10078  90.0000 228.0000 0000000   0.0000  48.0000 13.56072486    14
CTC1_L_00203020-04
1 10079U 22908TW  26075.70032407  .00000000  00000+0  00000-0 0  9990
2 10079  90.0000 228.0000 0000000   0.0000 138.0000 13.56072486    15
CTC1_L_00203021-01
1 10080U 24874UW  26075.70032407  .00000000  00000+0  00000-0 0  9996
2 10080  90.0000 240.0000 0000000   0.0000 240.0000 13.56072486    15
CTC1_L_00203021-02
1 10081U 23444MZ  26075.70032407  .00000000  00000+0  00000-0 0  9999
2 10081  90.0000 240.0000 0000000   0.0000 330.0000 13.56072486    16
CTC1_L_00203021-03
1 10082U 22252SD  26075.70032407  .00000000  00000+0  00000-0 0  9996
2 10082  90.0000 240.0000 0000000   0.0000  60.0000 13.56072486    17
CTC1_L_00203021-04
1 10083U 23746OQ  26075.70032407  .00000000  00000+0  00000-0 0  9996
2 10083  90.0000 240.0000 0000000   0.0000 150.0000 13.56072486    18
CTC1_L_00203022-01
1 10084U 25045EO  26075.70032407  .00000000  00000+0  00000-0 0  9991
2 10084  90.0000 252.0000 0000000   0.0000 252.0000 13.56072486    15
CTC1_L_00203022-02
1 10085U 25665DT  26075.70032407  .00000000  00000+0  00000-0 0  9990
2 10085  90.0000 252.0000 0000000   0.0000 342.0000 13.56072486    16
CTC1_L_00203022-03
1 10086U 26743UX  26075.70032407  .00000000  00000+0  00000-0 0  9999
2 10086  90.0000 252.0000 0000000   0.0000  72.0000 13.56072486    17
CTC1_L_00203022-04
1 10087U 25751MK  26075.70032407  .00000000  00000+0  00000-0 0  9998
2 10087  90.0000 252.0000 0000000   0.0000 162.0000 13.56072486    18
CTC1_L_00203023-01
1 10088U 25852TO  26075.70032407  .00000000  00000+0  00000-0 0  9991
2 10088  90.0000 264.0000 0000000   0.0000 264.0000 13.56072486    15
CTC1_L_00203023-02
1 10089U 23504GX  26075.70032407  .00000000  00000+0  00000-0 0  9994
2 10089  90.0000 264.0000 0000000   0.0000 354.0000 13.56072486    16
CTC1_L_00203023-03
1 10090U 26102DM  26075.70032407  .00000000  00000+0  00000-0 0  9993
2 10090  90.0000 264.0000 0000000   0.0000  84.0000 13.56072486    18
CTC1_L_00203023-04
1 10091U 25293HR  26075.70032407  .00000000  00000+0  00000-0 0  9994
2 10091  90.0000 264.0000 0000000   0.0000 174.0000 13.56072486    19
CTC1_L_00203024-01
1 10092U 25806RR  26075.70032407  .00000000  00000+0  00000-0 0  9995
2 10092  90.0000 276.0000 0000000   0.0000 276.0000 13.56072486    16
CTC1_L_00203024-02
1 10093U 25032JN  26075.70032407  .00000000  00000+0  00000-0 0  9997
2 10093  90.0000 276.0000 0000000   0.0000   6.0000 13.56072486    18
CTC1_L_00203024-03
1 10094U 23957DK  26075.70032407  .00000000  00000+0  00000-0 0  9992
2 10094  90.0000 276.0000 0000000   0.0000  96.0000 13.56072486    18
CTC1_L_00203024-04
1 10095U 22408RR  26075.70032407  .00000000  00000+0  00000-0 0  9993
2 10095  90.0000 276.0000 0000000   0.0000 186.0000 13.56072486    19
CTC1_L_00203025-01
1 10096U 23087OE  26075.70032407  .00000000  00000+0  00000-0 0  9998
2 10096  90.0000 288.0000 0000000   0.0000 288.0000 13.56072486    16
CTC1_L_00203025-02
1 10097U 22518NE  26075.70032407  .00000000  00000+0  00000-0 0  9997
2 10097  90.0000 288.0000 0000000   0.0000  18.0000 13.56072486    18
CTC1_L_00203025-03
1 10098U 22071WM  26075.70032407  .00000000  00000+0  00000-0 0  9992
2 10098  90.0000 288.0000 0000000   0.0000 108.0000 13.56072486    19
CTC1_L_00203025-04
1 10099U 25150YO  26075.70032407  .00000000  00000+0  00000-0 0  9994
2 10099  90.0000 288.0000 0000000   0.0000 198.0000 13.56072486    19
CTC1_L_00203026-01
1 10100U 23666OE  26075.70032407  .00000000  00000+0  00000-0 0  9997
2 10100  90.0000 300.0000 0000000   0.0000 300.0000 13.56072486    12
CTC1_L_00203026-02
1 10101U 25727XZ  26075.70032407  .00000000  00000+0  00000-0 0  9998
2 10101  90.0000 300.0000 0000000   0.0000  30.0000 13.56072486    13
CTC1_L_00203026-03
1 10102U 25999DZ  26075.70032407  .00000000  00000+0  00000-0 0  9990
2 10102  90.0000 300.0000 0000000   0.0000 120.0000 13.56072486    14
CTC1_L_00203026-04
1 10103U 24512DC  26075.70032407  .00000000  00000+0  00000-0 0  9991
2 10103  90.0000 300.0000 0000000   0.0000 210.0000 13.56072486    15
CTC1_L_00203027-01
1 10104U 22879GZ  26075.70032407  .00000000  00000+0  00000-0 0  9996
2 10104  90.0000 312.0000 0000000   0.0000 312.0000 13.56072486    12
CTC1_L_00203027-02
1 10105U 23510GV  26075.70032407  .00000000  00000+0  00000-0 0  9990
2 10105  90.0000 312.0000 0000000   0.0000  42.0000 13.56072486    13
CTC1_L_00203027-03
1 10106U 22328JW  26075.70032407  .00000000  00000+0  00000-0 0  9997
2 10106  90.0000 312.0000 0000000   0.0000 132.0000 13.56072486    14
CTC1_L_00203027-04
1 10107U 22129DB  26075.70032407  .00000000  00000+0  00000-0 0  9997
2 10107  90.0000 312.0000 0000000   0.0000 222.0000 13.56072486    15
CTC1_L_00203028-01
1 10108U 24528UW  26075.70032407  .00000000  00000+0  00000-0 0  9993
2 10108  90.0000 324.0000 0000000   0.0000 324.0000 13.56072486    12
CTC1_L_00203028-02
1 10109U 23204RD  26075.70032407  .00000000  00000+0  00000-0 0  9994
2 10109  90.0000 324.0000 0000000   0.0000  54.0000 13.56072486    13
CTC1_L_00203028-03
1 10110U 22896H   26075.70032407  .00000000  00000+0  00000-0 0  9992
2 10110  90.0000 324.0000 0000000   0.0000 144.0000 13.56072486    15
CTC1_L_00203028-04
1 10111U 23698EM  26075.70032407  .00000000  00000+0  00000-0 0  9994
2 10111  90.0000 324.0000 0000000   0.0000 234.0000 13.56072486    16
CTC1_L_00203029-01
1 10112U 25353JU  26075.70032407  .00000000  00000+0  00000-0 0  9995
2 10112  90.0000 336.0000 0000000   0.0000 336.0000 13.56072486    13
CTC1_L_00203029-02
1 10113U 25881Q   26075.70032407  .00000000  00000+0  00000-0 0  9992
2 10113  90.0000 336.0000 0000000   0.0000  66.0000 13.56072486    14
CTC1_L_00203029-03
1 10114U 25357DF  26075.70032407  .00000000  00000+0  00000-0 0  9991
2 10114  90.0000 336.0000 0000000   0.0000 156.0000 13.56072486    15
CTC1_L_00203029-04
1 10115U 26178SS  26075.70032407  .00000000  00000+0  00000-0 0  9994
2 10115  90.0000 336.0000 0000000   0.0000 246.0000 13.56072486    16
CTC1_L_00203030-01
1 10116U 23945KT  26075.70032407  .00000000  00000+0  00000-0 0  9994
2 10116  90.0000 348.0000 0000000   0.0000 348.0000 13.56072486    13
CTC1_L_00203030-02
1 10117U 26947KN  26075.70032407  .00000000  00000+0  00000-0 0  9990
2 10117  90.0000 348.0000 0000000   0.0000  78.0000 13.56072486    14
CTC1_L_00203030-03
1 10118U 23110AZ  26075.70032407  .00000000  00000+0  00000-0 0  9990
2 10118  90.0000 348.0000 0000000   0.0000 168.0000 13.56072486    15
CTC1_L_00203030-04
1 10119U 24110SS  26075.70032407  .00000000  00000+0  00000-0 0  9992
2 10119  90.0000 348.0000 0000000   0.0000 258.0000 13.56072486    16
